NORAD_CAT_ID,OBJECT_NAME,OBJECT_TYPE,EPOCH,MEAN_MOTION,ECCENTRICITY,INCLINATION,RA_OF_ASC_NODE,ARG_OF_PERICENTER,MEAN_ANOMALY,BSTAR,MEAN_MOTION_DOT,MEAN_MOTION_DDOT,TLE_LINE0,TLE_LINE1,TLE_LINE2,SEMIMAJOR_AXIS,PERIOD,APOGEE,PERIGEE,DECAYED
49148.0,STARLINK-3048,PAYLOAD,2022-03-28 12:00:00,14.96692965,0.000337,69.9969,309.7745,276.0071,153.4596,0.0064557,0.00074551,0.0,0 STARLINK-3048,1 49148U 21082U   22087.50001157  .00074551  00000-0  64557-2 0  9998,2 49148  69.9969 309.7745 0003370 276.0071 153.4596 14.96692965 31595,6955.26,96.212,579.469,574.781,0.0
49148.0,STARLINK-3048,PAYLOAD,2022-03-28 14:00:01,14.9672085,0.0003319,69.9971,309.5649,275.7027,242.7047,0.0029376,0.00033699,0.0,0 STARLINK-3048,1 49148U 21082U   22087.58335648  .00033699  00000-0  29376-2 0  9999,2 49148  69.9971 309.5649 0003319 275.7027 242.7047 14.96720850  3596,6955.174,96.21,579.347,574.73,0.0
49148.0,STARLINK-3048,PAYLOAD,2022-03-28 20:00:01,14.96749109,0.000337,69.9971,308.9361,279.3183,145.6987,-0.0037069,-0.00042302,0.0,0 STARLINK-3048,1 49148U 21082U   22087.83334491 -.00042302  00000-0 -37069-2 0  9993,2 49148  69.9971 308.9361 0003370 279.3183 145.6987 14.96749109 31649,6955.0859999999975,96.209,579.295,574.607,0.0
49148.0,STARLINK-3048,PAYLOAD,2022-03-28 22:00:00,14.96735669,0.0003347,69.997,308.7265,281.0061,232.9086,-0.0023104,-0.0002645,0.0,0 STARLINK-3048,1 49148U 21082U   22087.91667824 -.00026450  00000-0 -23104-2 0  9992,2 49148  69.9970 308.7265 0003347 281.0061 232.9086 14.96735669  3575,6955.128000000002,96.209,579.32,574.665,0.0
49148.0,STARLINK-3048,PAYLOAD,2022-03-29 12:00:00,14.96677339,0.0003259,69.9967,307.2591,276.0548,140.0849,0.0061794,0.00071294,0.0,0 STARLINK-3048,1 49148U 21082U   22088.50001157  .00071294  00000-0  61794-2 0  9990,2 49148  69.9967 307.2591 0003259 276.0548 140.0849 14.96677339 31748,6955.308000000001,96.213,579.44,574.9069999999998,0.0
49148.0,STARLINK-3048,PAYLOAD,2022-03-29 14:00:01,14.96707299,0.0003221,69.9969,307.0495,275.9873,229.0251,0.0021819,0.00024966,0.0,0 STARLINK-3048,1 49148U 21082U   22088.58334491  .00024966  00000-0  21819-2 0  9996,2 49148  69.9969 307.0495 0003221 275.9873 229.0251 14.96707299  3595,6955.215,96.211,579.321,574.84,0.0
49148.0,STARLINK-3048,PAYLOAD,2022-03-29 22:00:00,14.96704289,0.0003275,69.9966,306.2111,281.5507,219.0157,0.0014995,0.00017109,0.0,0 STARLINK-3048,1 49148U 21082U   22088.91667824  .00017109  00000-0  14995-2 0  9990,2 49148  69.9966 306.2111 0003275 281.5507 219.0157 14.96704289  3583,6955.225,96.211,579.368,574.812,0.0
49148.0,STARLINK-3048,PAYLOAD,2022-03-30 12:00:00,14.9669116,0.0003211,69.9962,304.7437,276.276,126.5042,0.0059331,0.00068444,0.0,0 STARLINK-3048,1 49148U 21082U   22089.50001157  .00068444  00000-0  59331-2 0  9998,2 49148  69.9962 304.7437 0003211 276.2760 126.5042 14.96691160 31898,6955.265,96.212,579.364,574.8969999999998,0.0
49148.0,STARLINK-3048,PAYLOAD,2022-03-30 14:00:01,14.96722282,0.0003187,69.9965,304.5341,276.3831,215.3338,0.0011897,0.00013554,0.0,0 STARLINK-3048,1 49148U 21082U   22089.58335648  .00013554  00000-0  11897-2 0  9998,2 49148  69.9965 304.5341 0003187 276.3831 215.3338 14.96722282  3541,6955.169,96.21,579.251,574.817,0.0
49148.0,STARLINK-3048,PAYLOAD,2022-03-30 20:00:01,14.9673706,0.0003307,69.9963,303.9052,280.4135,117.9136,-0.0049945,-0.00056828,0.0,0 STARLINK-3048,1 49148U 21082U   22089.83334491 -.00056828  00000-0 -49945-2 0  9999,2 49148  69.9963 303.9052 0003307 280.4135 117.9136 14.96737060 31946,6955.123000000001,96.209,579.288,574.688,0.0
49148.0,STARLINK-3048,PAYLOAD,2022-03-30 22:00:00,14.96710644,0.0003307,69.9962,303.6956,282.0093,205.2141,-0.0012927,-0.00014855,0.0,0 STARLINK-3048,1 49148U 21082U   22089.91667824 -.00014855  00000-0 -12927-2 0  9991,2 49148  69.9962 303.6956 0003307 282.0093 205.2141 14.96710644  3592,6955.205,96.211,579.37,574.77,0.0
49148.0,STARLINK-3048,PAYLOAD,2022-03-31 12:00:00,14.96676908,0.0003259,69.9957,302.2281,276.1391,113.2771,0.0055348,0.00063777,0.0,0 STARLINK-3048,1 49148U 21082U   22090.50001157  .00063777  00000-0  55348-2 0  9998,2 49148  69.9957 302.2281 0003259 276.1391 113.2771 14.96676908 32046,6955.31,96.213,579.441,574.908,0.0
49148.0,STARLINK-3048,PAYLOAD,2022-03-31 14:00:01,14.96707226,0.0003241,69.99600000000001,302.0185,276.2958,201.992,0.0013853,0.00015797,0.0,0 STARLINK-3048,1 49148U 21082U   22090.58334491  .00015797  00000-0  13853-2 0  9990,2 49148  69.9960 302.0185 0003241 276.2958 201.9920 14.96707226  3577,6955.215999999999,96.211,579.335,574.827,0.0
49148.0,STARLINK-3048,PAYLOAD,2022-03-31 20:00:01,14.96713098,0.000332,69.9959,301.3895,280.2867,104.663,-0.00051484,-5.979e-05,0.0,0 STARLINK-3048,1 49148U 21082U   22090.83334491 -.00005979  00000-0 -51484-3 0  9994,2 49148  69.9959 301.3895 0003320 280.2867 104.6630 14.96713098 32097,6955.198,96.211,579.372,574.753,0.0
49148.0,STARLINK-3048,PAYLOAD,2022-03-31 22:00:00,14.96702513,0.0003324,69.9958,301.1798,281.9412,191.8998,0.0021813,0.00024956,0.0,0 STARLINK-3048,1 49148U 21082U   22090.91667824  .00024956  00000-0  21813-2 0  9998,2 49148  69.9958 301.1798 0003324 281.9412 191.8998 14.96702513  3558,6955.23,96.212,579.4069999999998,574.783,0.0
49148.0,STARLINK-3048,PAYLOAD,2022-04-01 12:00:00,14.96697399,0.0003262,69.9961,299.7121,275.4264,100.6264,0.0053366,0.00061503,0.0,0 STARLINK-3048,1 49148U 21082U   22091.50001157  .00061503  00000-0  53366-2 0  9992,2 49148  69.9961 299.7121 0003262 275.4264 100.6264 14.96697399 32199,6955.246,96.212,579.38,574.842,0.0
49148.0,STARLINK-3048,PAYLOAD,2022-04-01 14:00:01,14.96727397,0.0003256999999999,69.9966,299.5024,275.5705,189.3599,0.0012703,0.00014483,0.0,0 STARLINK-3048,1 49148U 21082U   22091.58334491  .00014483  00000-0  12703-2 0  9995,2 49148  69.9966 299.5024 0003257 275.5705 189.3599 14.96727397  3587,6955.153,96.21,579.284,574.753,0.0
49148.0,STARLINK-3048,PAYLOAD,2022-04-01 20:00:01,14.96731599,0.0003328,69.997,298.8735,279.6321,91.9766,-0.00043694,-5.091e-05,0.0,0 STARLINK-3048,1 49148U 21082U   22091.83334491 -.00005091  00000-0 -43694-3 0  9994,2 49148  69.9970 298.8735 0003328 279.6321  91.9766 14.96731599 32249,6955.14,96.21,579.32,574.691,0.0
49148.0,STARLINK-3048,PAYLOAD,2022-04-01 22:00:00,14.96725401,0.0003312,69.9973,298.6638,281.311,179.1864,-2.4756e-05,-3.75e-06,0.0,0 STARLINK-3048,1 49148U 21082U   22091.91667824 -.00000375  00000-0 -24756-4 0  9991,2 49148  69.9973 298.6638 0003312 281.3110 179.1864 14.96725401  3567,6955.159000000002,96.21,579.328,574.721,0.0
49148.0,STARLINK-3048,PAYLOAD,2022-04-02 22:00:01,14.96703092,0.0003265,69.998,296.1479,280.7032,166.5143,0.0023552,0.00026961,0.0,0 STARLINK-3048,1 49148U 21082U   22092.91668981  .00026961  00000-0  23552-2 0  9995,2 49148  69.9980 296.1479 0003265 280.7032 166.5143 14.96703092  3588,6955.229,96.211,579.364,574.823,0.0
49148.0,STARLINK-3048,PAYLOAD,2022-04-03 04:00:00,14.96743174,0.0003258,69.9976,295.5189,280.3584,73.4447,-0.0046586,-0.00053049,0.0,0 STARLINK-3048,1 49148U 21082U   22093.16667824 -.00053049  00000-0 -46586-2 0  9999,2 49148  69.9976 295.5189 0003258 280.3584  73.4447 14.96743174 32449,6955.104,96.209,579.235,574.703,0.0
49148.0,STARLINK-3048,PAYLOAD,2022-04-03 20:00:01,14.96694146,0.0003179,69.998,293.8419,279.688,65.2764,0.00032678,3.649e-05,0.0,0 STARLINK-3048,1 49148U 21082U   22093.83335648  .00003649  00000-0  32678-3 0  9996,2 49148  69.9980 293.8419 0003179 279.6880  65.2764 14.96694146 32549,6955.255999999999,96.212,579.332,574.91,0.0
49148.0,STARLINK-3048,PAYLOAD,2022-04-03 22:00:00,14.96683853,0.0003173,69.9981,293.6323,281.0128,152.7729,0.0026556,0.00030412,0.0,0 STARLINK-3048,1 49148U 21082U   22093.91667824  .00030412  00000-0  26556-2 0  9994,2 49148  69.9981 293.6323 0003173 281.0128 152.7729 14.96683853  3575,6955.288000000001,96.213,579.36,574.946,0.0
49148.0,STARLINK-3048,PAYLOAD,2022-04-04 14:00:01,14.96720112,0.0003149,69.9983,291.9553,275.3525,149.4776,-0.00061854,-7.165e-05,0.0,0 STARLINK-3048,1 49148U 21082U   22094.58334491 -.00007165  00000-0 -61854-3 0  9991,2 49148  69.9983 291.9553 0003149 275.3525 149.4776 14.96720112  3589,6955.176,96.21,579.231,574.851,0.0
49148.0,STARLINK-3048,PAYLOAD,2022-04-04 22:00:00,14.96693723,0.0003164,69.9983,291.1168,281.7192,138.6643,0.0030668,0.00035168,0.0,0 STARLINK-3048,1 49148U 21082U   22094.91667824  .00035168  00000-0  30668-2 0  9997,2 49148  69.9983 291.1168 0003164 281.7192 138.6643 14.96693723  3581,6955.2580000000025,96.212,579.323,574.922,0.0
49148.0,STARLINK-3048,PAYLOAD,2022-04-05 04:00:00,14.96736348,0.0003119,69.9979,290.488,280.7553,46.2733,-0.0044236999999999,-0.00050388,0.0,0 STARLINK-3048,1 49148U 21082U   22095.16667824 -.00050388  00000-0 -44237-2 0  9995,2 49148  69.9979 290.4880 0003119 280.7553  46.2733 14.96736348 32744,6955.126,96.209,579.16,574.821,0.0
49148.0,STARLINK-3048,PAYLOAD,2022-04-05 12:00:00,14.96704791,0.000307,69.9983,289.6496,275.2154,47.3622,0.0032051,0.00036777,0.0,0 STARLINK-3048,1 49148U 21082U   22095.50001157  .00036777  00000-0  32051-2 0  9999,2 49148  69.9983 289.6496 0003070 275.2154  47.3622 14.96704791 32795,6955.223000000001,96.211,579.224,574.953,0.0
49148.0,STARLINK-3048,PAYLOAD,2022-04-05 14:00:01,14.967310199999998,0.0003098,69.9985,289.4398,275.8789,135.6383,-0.0011308,-0.00013016,0.0,0 STARLINK-3048,1 49148U 21082U   22095.58335648 -.00013016  00000-0 -11308-2 0  9997,2 49148  69.9985 289.4398 0003098 275.8789 135.6383 14.96731020  3558,6955.142,96.21,579.1619999999998,574.852,0.0
49148.0,STARLINK-3048,PAYLOAD,2022-04-05 22:00:00,14.96703008,0.0003133,69.9984,288.6013,282.1584,124.8623,0.0031,0.0003556,0.0,0 STARLINK-3048,1 49148U 21082U   22095.91667824  .00035560  00000-0  31000-2 0  9995,2 49148  69.9984 288.6013 0003133 282.1584 124.8623 14.96703008  3558,6955.229,96.211,579.273,574.915,0.0
